GLOBALSTAR M057 [-]     
1 25943U 99058A   23346.54626331 -.00000104  00000+0 -99454-4 0  9993
2 25943  51.9972 116.5203 0001515 325.3562  34.7189 12.24780559 99210
GLOBALSTAR M059 [-]     
1 25944U 99058B   23346.08709757 -.00000038  00000+0  60149-3 0  9990
2 25944  52.0019 263.4559 0001008  31.3619  70.6141 11.99957665507648
GLOBALSTAR M056 [-]     
1 25945U 99058C   23346.13881818 -.00000011  00000+0  89146-3 0  9995
2 25945  51.9970 279.4831 0000882 114.7445 348.3354 12.04774711 95969
GLOBALSTAR M039 [-]     
1 25961U 99062A   23345.76387688 -.00000071  00000+0  18244-3 0  9999
2 25961  51.9820 154.2613 0002742 176.4833 183.6053 12.62276845110325
GLOBALSTAR M034 [-]     
1 25962U 99062B   23346.39740696 -.00000023  00000+0  91541-3 0  9990
2 25962  51.9898   8.2867 0014219  78.3180  26.9201 11.79420142 73169
